ZORKIY-2M-5             
1 67295U 25313AZ  26016.48731911  .00007058  00000+0  31552-3 0  9990
2 67295  97.4113  93.6609 0011462 153.7011 206.4809 15.21568507  2888
SITRO-AIS-62            
1 67296U 25313BA  26016.48664011  .00008404  00000+0  37433-3 0  9997
2 67296  97.4126  93.6669 0009704 163.0275 197.1287 15.21652204  2885
SITRO-AIS-61            
1 67297U 25313BB  26016.48592363  .00008190  00000+0  36424-3 0  9999
2 67297  97.4128  93.6677 0009385 164.9270 195.2247 15.21714460  2885
TIANHUI 7               
1 67300U 25314A   26008.13994258  .00002013  00000+0  82629-4 0  9994
2 67300  97.4205  85.2818 0001392 102.4970 257.6424 15.25383404  1382
CZ-4B R/B               
1 67301U 25314B   26016.57835451  .00092614  46822-5  44883-3 0  9994
2 67301  97.3746  94.6713 0138140 313.2444  45.7352 15.69682797  2696
SHIJIAN-29A (SJ-29A)    
1 67302U 25315A   26016.74122316 -.00000052  00000+0  00000+0 0  9991
2 67302   3.0142  99.1362 0001546 305.6390  51.2644  1.00271515    95
CZ-7A R/B               
1 67303U 25315B   26016.26458126  .00103400  13770-5  27702-2 0  9995
2 67303  19.5690  93.7656 7193915 191.4156 132.9924  2.43659426   404
CSG-3                   
1 67304U 26001A   26016.64140294  .00000149  00000+0  25153-4 0  9997
2 67304  97.8444 202.5010 0001619  90.7411 269.3988 14.82316116  2018
STARLINK-36490          
1 67305U 26002A   26016.58336806 -.01286384  00000+0 -61986-2 0  9990
2 67305  42.9968 266.0835 0001809 266.0144 148.0083 15.84343958  3100
STARLINK-36488          
1 67306U 26002B   26016.58336806 -.01285828  00000+0 -61941-2 0  9994
2 67306  42.9969 266.0783 0001876 272.6230 143.4902 15.84348030  3045
STARLINK-36481          
1 67307U 26002C   26016.58336806 -.01301264  00000+0 -62869-2 0  9998
2 67307  42.9970 266.0659 0001839 269.1441 151.9583 15.84321272  3042
STARLINK-36449          
1 67308U 26002D   26016.58336806 -.01311727  00000+0 -63455-2 0  9996
2 67308  42.9969 266.0599 0001775 270.4429 153.0322 15.84318581  3104
